COSMOS 2419 (714)       
1 28915U 05050A   17213.72405031 -.00000026  00000-0  00000-0 0  9990
2 28915  65.5170  64.3201 0016510 357.7444  98.6950  2.13106748 90305
COSMOS 2425 (716)       
1 29670U 06062A   17213.63350748 -.00000057  00000-0  10000-3 0  9995
2 29670  65.4379 303.3312 0019637 344.9456  93.8980  2.13104944 82506
COSMOS 2426 (717)       
1 29671U 06062B   17213.59577095 -.00000057  00000-0  10000-3 0  9997
2 29671  65.4561 303.4242 0019112 165.5510 102.3404  2.13102920 82508
COSMOS 2424 (715)       
1 29672U 06062C   17213.60137082 -.00000057  00000-0  10000-3 0  9998
2 29672  65.4399 303.3440 0018410 164.7471 282.6520  2.13102370 82504
COSMOS 2433 (720)       
1 32275U 07052A   17213.51718932 -.00000028  00000-0  10000-3 0  9998
2 32275  65.5321  64.1055 0000827 296.0792 245.5512  2.13104588 76016
COSMOS 2432 (719)       
1 32276U 07052B   17213.77887309 -.00000026  00000-0  10000-3 0  9990
2 32276  65.5425  64.1697 0011286 345.4616 349.7259  2.13104061 76010
COSMOS 2434 (721)       
1 32393U 07065A   17213.92842602 -.00000054  00000-0  00000-0 0  9995
2 32393  65.0545 302.4484 0004896 129.4939 257.0019  2.13102951 74735
COSMOS 2436 (723)       
1 32395U 07065C   17213.86230422 -.00000054  00000-0  10000-3 0  9995
2 32395  65.0651 302.4985 0013208   0.3602  24.3281  2.13104328 74660
COSMOS 2443 (725)       
1 33379U 08046B   17212.71087816 -.00000036  00000-0  00000-0 0  9994
2 33379  65.4626  63.5096 0011911 176.7432   5.9985  2.13099567 68842
COSMOS 2456 (730)       
1 36111U 09070A   17213.76981718  .00000051  00000-0  00000-0 0  9995
2 36111  64.1828 182.0176 0006482 299.0033 137.0737  2.13102979 59392
COSMOS 2457 (733)       
1 36112U 09070B   17213.68740118  .00000052  00000-0  00000-0 0  9995
2 36112  64.1648 181.9385 0006217 191.9638 309.2334  2.13101680 59394
COSMOS 2458 (734)       
1 36113U 09070C   17213.66715067  .00000052  00000-0  10000-3 0  9993
2 36113  64.1704 181.9469 0002878 300.9678 232.7401  2.13101937 59396
COSMOS 2459 (731)       
1 36400U 10007A   17213.88374201 -.00000024  00000-0  10000-3 0  9999
2 36400  65.4435  63.1931 0027714 356.4698 328.0819  2.13102207 57749
COSMOS 2461 (735)       
1 36401U 10007B   17213.68038244 -.00000026  00000-0  10000-3 0  9994
2 36401  65.4348  63.1765 0008558  68.4284  10.7328  2.13102298 57744
COSMOS 2460 (732)       
1 36402U 10007C   17213.67564147 -.00000027  00000-0  10000-3 0  9991
2 36402  65.4257  63.1484 0002118  65.2835  51.4116  2.13101678 57743
COSMOS 2465 (737)       
1 37138U 10041B   17213.86080214 -.00000055  00000-0  00000-0 0  9992
2 37138  64.6519 302.4157 0036507 170.8102 208.1322  2.13097450 53824
COSMOS 2464 (736)       
1 37139U 10041C   17213.74541826 -.00000056  00000-0  00000-0 0  9992
2 37139  64.6594 302.4202 0021593  13.7066 100.1263  2.13102636 53819
COSMOS 2471 (701K)      
1 37372U 11009A   17213.79968094 -.00000025  00000-0  00000-0 0  9997
2 37372  65.4230  63.0925 0006722 229.8962 119.0630  2.13107610 50011
COSMOS 2474 (742)       
1 37829U 11055A   17213.74065192  .00000053  00000-0  00000-0 0  9997
2 37829  64.5067 182.6036 0010825 253.9055  19.3823  2.13101922 45387
COSMOS 2476 (744)       
1 37867U 11064A   17213.66811881  .00000054  00000-0  00000-0 0  9995
2 37867  64.4866 182.6750 0020099 246.7171  16.8840  2.13101994 44739
COSMOS 2477 (745)       
1 37868U 11064B   17213.75310807  .00000053  00000-0  00000-0 0  9997
2 37868  64.4949 182.7178 0017950 248.2953 259.5966  2.13101858 44693
COSMOS 2475 (743)       
1 37869U 11064C   17213.67418881  .00000054  00000-0  00000-0 0  9991
2 37869  64.5026 182.7115 0022911 270.8569 132.9236  2.13102139 44708
COSMOS 2485 (747)       
1 39155U 13019A   17213.59995663  .00000055  00000-0  00000-0 0  9993
2 39155  64.6562 182.7168 0020346 241.9887  14.3203  2.13102026 33209
COSMOS 2492 (754)       
1 39620U 14012A   17213.51976569 -.00000028  00000-0  10000-3 0  9995
2 39620  65.3140  63.0844 0014543 339.2902 249.7502  2.13103413 26152
COSMOS 2500 (755)       
1 40001U 14032A   17213.80527700 -.00000026  00000-0  00000-0 0  9997
2 40001  65.2538  63.0713 0004629 189.2208 121.8065  2.13102796 24377
COSMOS 2501 (702K)      
1 40315U 14075A   17213.76297843 -.00000058  00000-0  00000-0 0  9994
2 40315  64.3866 303.7453 0016079 206.3737 237.6690  2.13098664 20783
COSMOS 2514 (751)       
1 41330U 16008A   17213.64062563 -.00000028  00000-0  00000-0 0  9993
2 41330  65.0541  63.2066 0007571 207.9783 156.8369  2.13103387 11540
COSMOS 2516 (753)       
1 41554U 16032A   17213.77292638 -.00000057  00000-0  00000-0 0  9992
2 41554  64.6061 303.5220 0012952 215.8116 142.8486  2.13101555  9142
